{"type": "FeatureCollection", "features": [{"id": "0", "type": "Feature", "properties": {"geographyName": "city_Bartow"}, "geometry": {"type": "Point", "coordinates": [-79.78578319759546, 38.54216250011997]}}, {"id": "1", "type": "Feature", "properties": {"geographyName": "city_Beckley"}, "geometry": {"type": "Point", "coordinates": [-81.18412236483138, 37.787664111984405]}}, {"id": "2", "type": "Feature", "properties": {"geographyName": "city_Benwood"}, "geometry": {"type": "Point", "coordinates": [-80.7342493, 40.0181288]}}, {"id": "3", "type": "Feature", "properties": {"geographyName": "city_Bluefield"}, "geometry": {"type": "Point", "coordinates": [-81.21493102258594, 37.26062748915045]}}, {"id": "4", "type": "Feature", "properties": {"geographyName": "city_Bridgeport"}, "geometry": {"type": "Point", "coordinates": [-80.2477472553354, 39.30359909524887]}}, {"id": "5", "type": "Feature", "properties": {"geographyName": "city_Buckhannon"}, "geometry": {"type": "Point", "coordinates": [-80.22824317873992, 38.992734346750396]}}, {"id": "6", "type": "Feature", "properties": {"geographyName": "city_Burlington"}, "geometry": {"type": "Point", "coordinates": [-78.92220743507258, 39.33701293991827]}}, {"id": "7", "type": "Feature", "properties": {"geographyName": "city_Burnsville"}, "geometry": {"type": "Point", "coordinates": [-80.65383518275638, 38.85794659078755]}}, {"id": "8", "type": "Feature", "properties": {"geographyName": "city_Cairo"}, "geometry": {"type": "Point", "coordinates": [-81.15430173918195, 39.2066995160207]}}, {"id": "9", "type": "Feature", "properties": {"geographyName": "city_Chapmanville"}, "geometry": {"type": "Point", "coordinates": [-82.02151431082947, 37.97268506635033]}}, {"id": "10", "type": "Feature", "properties": {"geographyName": "city_Charles Town"}, "geometry": {"type": "Point", "coordinates": [-77.86325428116531, 39.274437746050125]}}, {"id": "11", "type": "Feature", "properties": {"geographyName": "city_Charleston"}, "geometry": {"type": "Point", "coordinates": [-81.63218888327465, 38.3484343734864]}}, {"id": "12", "type": "Feature", "properties": {"geographyName": "city_Chester"}, "geometry": {"type": "Point", "coordinates": [-80.5628478, 40.6131203]}}, {"id": "13", "type": "Feature", "properties": {"geographyName": "city_Clarksburg"}, "geometry": {"type": "Point", "coordinates": [-80.32308420540096, 39.286302906832844]}}, {"id": "14", "type": "Feature", "properties": {"geographyName": "city_Cross Lanes"}, "geometry": {"type": "Point", "coordinates": [-81.77061093484292, 38.43511812143354]}}, {"id": "15", "type": "Feature", "properties": {"geographyName": "city_Elizabeth"}, "geometry": {"type": "Point", "coordinates": [-81.39776407833388, 39.06157287077024]}}, {"id": "16", "type": "Feature", "properties": {"geographyName": "city_Elkins"}, "geometry": {"type": "Point", "coordinates": [-79.85403546838229, 38.92381458546825]}}, {"id": "17", "type": "Feature", "properties": {"geographyName": "city_Fairmont"}, "geometry": {"type": "Point", "coordinates": [-80.14902686509187, 39.47679241006138]}}, {"id": "18", "type": "Feature", "properties": {"geographyName": "city_Fairview"}, "geometry": {"type": "Point", "coordinates": [-80.24676473675137, 39.59270322904885]}}, {"id": "19", "type": "Feature", "properties": {"geographyName": "city_Follansbee"}, "geometry": {"type": "Point", "coordinates": [-80.5959065, 40.3275693]}}, {"id": "20", "type": "Feature", "properties": {"geographyName": "city_Gassaway"}, "geometry": {"type": "Point", "coordinates": [-80.77174278137196, 38.670220209754035]}}, {"id": "21", "type": "Feature", "properties": {"geographyName": "city_Glen Dale"}, "geometry": {"type": "Point", "coordinates": [-80.75629709299564, 39.94665657658172]}}, {"id": "22", "type": "Feature", "properties": {"geographyName": "city_Harpers Ferry"}, "geometry": {"type": "Point", "coordinates": [-77.74104869535772, 39.325329302214946]}}, {"id": "23", "type": "Feature", "properties": {"geographyName": "city_Huntington"}, "geometry": {"type": "Point", "coordinates": [-82.43459039717023, 38.41088960606735]}}, {"id": "24", "type": "Feature", "properties": {"geographyName": "city_Institute"}, "geometry": {"type": "Point", "coordinates": [-81.76614683689309, 38.37975102302701]}}, {"id": "25", "type": "Feature", "properties": {"geographyName": "city_Kenova"}, "geometry": {"type": "Point", "coordinates": [-82.58216658966869, 38.402488171974085]}}, {"id": "26", "type": "Feature", "properties": {"geographyName": "city_Lewisburg"}, "geometry": {"type": "Point", "coordinates": [-80.4326342636168, 37.80960456169294]}}, {"id": "27", "type": "Feature", "properties": {"geographyName": "city_Logan"}, "geometry": {"type": "Point", "coordinates": [-81.98571210673758, 37.85085237816463]}}, {"id": "28", "type": "Feature", "properties": {"geographyName": "city_Madison"}, "geometry": {"type": "Point", "coordinates": [-81.80462784050886, 38.06313022770456]}}, {"id": "29", "type": "Feature", "properties": {"geographyName": "city_Martinsburg"}, "geometry": {"type": "Point", "coordinates": [-77.9776404064216, 39.458238329666834]}}, {"id": "30", "type": "Feature", "properties": {"geographyName": "city_Montgomery"}, "geometry": {"type": "Point", "coordinates": [-81.32441563020879, 38.174966225887324]}}, {"id": "31", "type": "Feature", "properties": {"geographyName": "city_Moorefield"}, "geometry": {"type": "Point", "coordinates": [-78.96228239769361, 39.067473856077136]}}, {"id": "32", "type": "Feature", "properties": {"geographyName": "city_Morgantown"}, "geometry": {"type": "Point", "coordinates": [-79.9463891619319, 39.63816818549624]}}, {"id": "33", "type": "Feature", "properties": {"geographyName": "city_Moundsville"}, "geometry": {"type": "Point", "coordinates": [-80.74199086987093, 39.92214117916748]}}, {"id": "34", "type": "Feature", "properties": {"geographyName": "city_Mullens"}, "geometry": {"type": "Point", "coordinates": [-81.3804607, 37.5832541]}}, {"id": "35", "type": "Feature", "properties": {"geographyName": "city_New Martinsville"}, "geometry": {"type": "Point", "coordinates": [-80.8568708806819, 39.663455823563936]}}, {"id": "36", "type": "Feature", "properties": {"geographyName": "city_Nitro"}, "geometry": {"type": "Point", "coordinates": [-81.8440197, 38.4148146]}}, {"id": "37", "type": "Feature", "properties": {"geographyName": "city_Paden City"}, "geometry": {"type": "Point", "coordinates": [-80.93492323007753, 39.60349685102927]}}, {"id": "38", "type": "Feature", "properties": {"geographyName": "city_Parkersburg"}, "geometry": {"type": "Point", "coordinates": [-81.54187792399004, 39.26233374811422]}}, {"id": "39", "type": "Feature", "properties": {"geographyName": "city_Parsons"}, "geometry": {"type": "Point", "coordinates": [-79.6809332, 39.0968695]}}, {"id": "40", "type": "Feature", "properties": {"geographyName": "city_Petersburg"}, "geometry": {"type": "Point", "coordinates": [-79.12769248852088, 38.99568462115364]}}, {"id": "41", "type": "Feature", "properties": {"geographyName": "city_Philippi"}, "geometry": {"type": "Point", "coordinates": [-80.0419187790712, 39.14878738251935]}}, {"id": "42", "type": "Feature", "properties": {"geographyName": "city_Pineville"}, "geometry": {"type": "Point", "coordinates": [-81.53554940836537, 37.584812089597534]}}, {"id": "43", "type": "Feature", "properties": {"geographyName": "city_Poca"}, "geometry": {"type": "Point", "coordinates": [-81.81198756157278, 38.474710229004124]}}, {"id": "44", "type": "Feature", "properties": {"geographyName": "city_Point Pleasant"}, "geometry": {"type": "Point", "coordinates": [-82.13026020601953, 38.8529841206087]}}, {"id": "45", "type": "Feature", "properties": {"geographyName": "city_Raleigh"}, "geometry": {"type": "Point", "coordinates": [-81.2250929, 37.7493481]}}, {"id": "46", "type": "Feature", "properties": {"geographyName": "city_Ranson"}, "geometry": {"type": "Point", "coordinates": [-77.86670454057392, 39.32505281113867]}}, {"id": "47", "type": "Feature", "properties": {"geographyName": "city_Ravenswood"}, "geometry": {"type": "Point", "coordinates": [-81.76193912013046, 38.95602738170423]}}, {"id": "48", "type": "Feature", "properties": {"geographyName": "city_Richwood"}, "geometry": {"type": "Point", "coordinates": [-80.5331411, 38.2248367]}}, {"id": "49", "type": "Feature", "properties": {"geographyName": "city_Sistersville"}, "geometry": {"type": "Point", "coordinates": [-80.99870151409155, 39.559820596223496]}}, {"id": "50", "type": "Feature", "properties": {"geographyName": "city_St. Marys"}, "geometry": {"type": "Point", "coordinates": [-81.19491058805708, 39.402404490435636]}}, {"id": "51", "type": "Feature", "properties": {"geographyName": "city_Summersville"}, "geometry": {"type": "Point", "coordinates": [-80.8409707040629, 38.28648275042017]}}, {"id": "52", "type": "Feature", "properties": {"geographyName": "city_Sutton"}, "geometry": {"type": "Point", "coordinates": [-80.71153398280022, 38.66631302271648]}}, {"id": "53", "type": "Feature", "properties": {"geographyName": "city_Union"}, "geometry": {"type": "Point", "coordinates": [-80.5420054117755, 37.590442259805656]}}, {"id": "54", "type": "Feature", "properties": {"geographyName": "city_Wardensville"}, "geometry": {"type": "Point", "coordinates": [-78.5932282761159, 39.07681482569705]}}, {"id": "55", "type": "Feature", "properties": {"geographyName": "city_Weirton"}, "geometry": {"type": "Point", "coordinates": [-80.5670364126263, 40.40608670028425]}}, {"id": "56", "type": "Feature", "properties": {"geographyName": "city_West Union"}, "geometry": {"type": "Point", "coordinates": [-80.77516269668514, 39.29636683642052]}}, {"id": "57", "type": "Feature", "properties": {"geographyName": "city_Weston"}, "geometry": {"type": "Point", "coordinates": [-80.46173937295265, 39.03909317403301]}}, {"id": "58", "type": "Feature", "properties": {"geographyName": "city_Wheeling"}, "geometry": {"type": "Point", "coordinates": [-80.69534902604455, 40.07509826070881]}}, {"id": "59", "type": "Feature", "properties": {"geographyName": "city_Williamson"}, "geometry": {"type": "Point", "coordinates": [-82.27107840322131, 37.6741021201422]}}, {"id": "60", "type": "Feature", "properties": {"geographyName": "city_Williamstown"}, "geometry": {"type": "Point", "coordinates": [-81.45498580448611, 39.39867043648718]}}, {"id": "61", "type": "Feature", "properties": {"geographyName": "county_Barbour"}, "geometry": {"type": "Point", "coordinates": [-80.00302888468741, 39.13293387437751]}}, {"id": "62", "type": "Feature", "properties": {"geographyName": "county_Berkeley"}, "geometry": {"type": "Point", "coordinates": [-78.02754286320892, 39.46406649139102]}}, {"id": "63", "type": "Feature", "properties": {"geographyName": "county_Boone"}, "geometry": {"type": "Point", "coordinates": [-81.71121262866916, 38.022996590645896]}}, {"id": "64", "type": "Feature", "properties": {"geographyName": "county_Braxton"}, "geometry": {"type": "Point", "coordinates": [-80.7192881386573, 38.699872717732724]}}, {"id": "65", "type": "Feature", "properties": {"geographyName": "county_Brooke"}, "geometry": {"type": "Point", "coordinates": [-80.57642030830883, 40.27381813012173]}}, {"id": "66", "type": "Feature", "properties": {"geographyName": "county_Cabell"}, "geometry": {"type": "Point", "coordinates": [-82.24171668909335, 38.42029687361729]}}, {"id": "67", "type": "Feature", "properties": {"geographyName": "county_Calhoun"}, "geometry": {"type": "Point", "coordinates": [-81.11757182999742, 38.8444981834994]}}, {"id": "68", "type": "Feature", "properties": {"geographyName": "county_Clay"}, "geometry": {"type": "Point", "coordinates": [-81.0750874677506, 38.462531996932114]}}, {"id": "69", "type": "Feature", "properties": {"geographyName": "county_Doddridge"}, "geometry": {"type": "Point", "coordinates": [-80.70696594997042, 39.26917047780777]}}, {"id": "70", "type": "Feature", "properties": {"geographyName": "county_Fayette"}, "geometry": {"type": "Point", "coordinates": [-81.08119207323537, 38.0287775597572]}}, {"id": "71", "type": "Feature", "properties": {"geographyName": "county_Gilmer"}, "geometry": {"type": "Point", "coordinates": [-80.85708363038476, 38.92406177434662]}}, {"id": "72", "type": "Feature", "properties": {"geographyName": "county_Grant"}, "geometry": {"type": "Point", "coordinates": [-79.19557028704126, 39.10513482223714]}}, {"id": "73", "type": "Feature", "properties": {"geographyName": "county_Greenbrier"}, "geometry": {"type": "Point", "coordinates": [-80.45295160768097, 37.946932663005846]}}, {"id": "74", "type": "Feature", "properties": {"geographyName": "county_Hampshire"}, "geometry": {"type": "Point", "coordinates": [-78.61416849200133, 39.317065296699745]}}, {"id": "75", "type": "Feature", "properties": {"geographyName": "county_Hancock"}, "geometry": {"type": "Point", "coordinates": [-80.57389222044452, 40.52185452213941]}}, {"id": "76", "type": "Feature", "properties": {"geographyName": "county_Hardy"}, "geometry": {"type": "Point", "coordinates": [-78.85792271899409, 39.00750292348782]}}, {"id": "77", "type": "Feature", "properties": {"geographyName": "county_Harrison"}, "geometry": {"type": "Point", "coordinates": [-80.37987498851373, 39.28352969192525]}}, {"id": "78", "type": "Feature", "properties": {"geographyName": "county_Jackson"}, "geometry": {"type": "Point", "coordinates": [-81.67479431716907, 38.83446832127839]}}, {"id": "79", "type": "Feature", "properties": {"geographyName": "county_Jefferson"}, "geometry": {"type": "Point", "coordinates": [-77.86273598660209, 39.307616586488486]}}, {"id": "80", "type": "Feature", "properties": {"geographyName": "county_Kanawha"}, "geometry": {"type": "Point", "coordinates": [-81.52811788233662, 38.33657482167188]}}, {"id": "81", "type": "Feature", "properties": {"geographyName": "county_Lewis"}, "geometry": {"type": "Point", "coordinates": [-80.50215933862818, 38.99586768250828]}}, {"id": "82", "type": "Feature", "properties": {"geographyName": "county_Lincoln"}, "geometry": {"type": "Point", "coordinates": [-82.07039176450492, 38.1753393357179]}}, {"id": "83", "type": "Feature", "properties": {"geographyName": "county_Logan"}, "geometry": {"type": "Point", "coordinates": [-81.9353213396575, 37.83150838221704]}}, {"id": "84", "type": "Feature", "properties": {"geographyName": "county_Marion"}, "geometry": {"type": "Point", "coordinates": [-80.24339834250856, 39.50999507272123]}}, {"id": "85", "type": "Feature", "properties": {"geographyName": "county_Marshall"}, "geometry": {"type": "Point", "coordinates": [-80.66338653664366, 39.86061285312973]}}, {"id": "86", "type": "Feature", "properties": {"geographyName": "county_Mason"}, "geometry": {"type": "Point", "coordinates": [-82.02653804747109, 38.76973579386006]}}, {"id": "87", "type": "Feature", "properties": {"geographyName": "county_McDowell"}, "geometry": {"type": "Point", "coordinates": [-81.65358378505267, 37.37850131586933]}}, {"id": "88", "type": "Feature", "properties": {"geographyName": "county_Mcdowell"}, "geometry": {"type": "Point", "coordinates": [-81.65358378505267, 37.37850131586933]}}, {"id": "89", "type": "Feature", "properties": {"geographyName": "county_Mercer"}, "geometry": {"type": "Point", "coordinates": [-81.11144446288225, 37.40551502242033]}}, {"id": "90", "type": "Feature", "properties": {"geographyName": "county_Mineral"}, "geometry": {"type": "Point", "coordinates": [-78.9437462563101, 39.414721896964174]}}, {"id": "91", "type": "Feature", "properties": {"geographyName": "county_Mingo"}, "geometry": {"type": "Point", "coordinates": [-82.13476121535084, 37.726404036775904]}}, {"id": "92", "type": "Feature", "properties": {"geographyName": "county_Monongalia"}, "geometry": {"type": "Point", "coordinates": [-80.04654416022507, 39.63028388975186]}}, {"id": "93", "type": "Feature", "properties": {"geographyName": "county_Monroe"}, "geometry": {"type": "Point", "coordinates": [-80.55055402562337, 37.56037182592427]}}, {"id": "94", "type": "Feature", "properties": {"geographyName": "county_Morgan"}, "geometry": {"type": "Point", "coordinates": [-78.25773170966139, 39.560433142038285]}}, {"id": "95", "type": "Feature", "properties": {"geographyName": "county_Nicholas"}, "geometry": {"type": "Point", "coordinates": [-80.79932809469224, 38.291701458632254]}}, {"id": "96", "type": "Feature", "properties": {"geographyName": "county_Ohio"}, "geometry": {"type": "Point", "coordinates": [-80.61905700953075, 40.096921703635694]}}, {"id": "97", "type": "Feature", "properties": {"geographyName": "county_Pendleton"}, "geometry": {"type": "Point", "coordinates": [-79.35089359201972, 38.680728376755546]}}, {"id": "98", "type": "Feature", "properties": {"geographyName": "county_Pocahontas"}, "geometry": {"type": "Point", "coordinates": [-80.00775249760409, 38.33179534201157]}}, {"id": "99", "type": "Feature", "properties": {"geographyName": "county_Preston"}, "geometry": {"type": "Point", "coordinates": [-79.66816198518033, 39.46929687064349]}}, {"id": "100", "type": "Feature", "properties": {"geographyName": "county_Putnam"}, "geometry": {"type": "Point", "coordinates": [-81.9089929273359, 38.50861677985508]}}, {"id": "101", "type": "Feature", "properties": {"geographyName": "county_Raleigh"}, "geometry": {"type": "Point", "coordinates": [-81.24863467457035, 37.77136110820296]}}, {"id": "102", "type": "Feature", "properties": {"geographyName": "county_Randolph"}, "geometry": {"type": "Point", "coordinates": [-79.87579557353152, 38.77472312318611]}}, {"id": "103", "type": "Feature", "properties": {"geographyName": "county_Ritchie"}, "geometry": {"type": "Point", "coordinates": [-81.06294738058747, 39.1782673749633]}}, {"id": "104", "type": "Feature", "properties": {"geographyName": "county_Roane"}, "geometry": {"type": "Point", "coordinates": [-81.34834951432771, 38.71402559007147]}}, {"id": "105", "type": "Feature", "properties": {"geographyName": "county_Summers"}, "geometry": {"type": "Point", "coordinates": [-80.85857291411813, 37.655872324051856]}}, {"id": "106", "type": "Feature", "properties": {"geographyName": "county_Taylor"}, "geometry": {"type": "Point", "coordinates": [-80.04618370099908, 39.335993304721065]}}, {"id": "107", "type": "Feature", "properties": {"geographyName": "county_Tucker"}, "geometry": {"type": "Point", "coordinates": [-79.56497417085724, 39.11359528971241]}}, {"id": "108", "type": "Feature", "properties": {"geographyName": "county_Tyler"}, "geometry": {"type": "Point", "coordinates": [-80.88482519114307, 39.46527763690259]}}, {"id": "109", "type": "Feature", "properties": {"geographyName": "county_Upshur"}, "geometry": {"type": "Point", "coordinates": [-80.23342320973933, 38.897826421585876]}}, {"id": "110", "type": "Feature", "properties": {"geographyName": "county_Wayne"}, "geometry": {"type": "Point", "coordinates": [-82.4269495914204, 38.145948660840176]}}, {"id": "111", "type": "Feature", "properties": {"geographyName": "county_Webster"}, "geometry": {"type": "Point", "coordinates": [-80.4218730680053, 38.494737305802055]}}, {"id": "112", "type": "Feature", "properties": {"geographyName": "county_Wetzel"}, "geometry": {"type": "Point", "coordinates": [-80.63909760362093, 39.60526326612446]}}, {"id": "113", "type": "Feature", "properties": {"geographyName": "county_Wirt"}, "geometry": {"type": "Point", "coordinates": [-81.37862382593063, 39.02242146238764]}}, {"id": "114", "type": "Feature", "properties": {"geographyName": "county_Wood"}, "geometry": {"type": "Point", "coordinates": [-81.51496531704791, 39.211131739413375]}}, {"id": "115", "type": "Feature", "properties": {"geographyName": "county_Wyoming"}, "geometry": {"type": "Point", "coordinates": [-81.54917723560199, 37.609611828284976]}}, {"id": "116", "type": "Feature", "properties": {"geographyName": "unincorporated_Asbury"}, "geometry": {"type": "Point", "coordinates": [-80.5592455, 37.8198426]}}, {"id": "117", "type": "Feature", "properties": {"geographyName": "unincorporated_Berkeley Springs"}, "geometry": {"type": "Point", "coordinates": [-78.2279514, 39.6267975]}}, {"id": "118", "type": "Feature", "properties": {"geographyName": "unincorporated_Davisville"}, "geometry": {"type": "Point", "coordinates": [-81.4984554, 39.2011873]}}, {"id": "119", "type": "Feature", "properties": {"geographyName": "unincorporated_Kearneysville"}, "geometry": {"type": "Point", "coordinates": [-77.8855516, 39.3881556]}}, {"id": "120", "type": "Feature", "properties": {"geographyName": "unincorporated_Kent"}, "geometry": {"type": "Point", "coordinates": [-80.8612054, 39.7664646]}}, {"id": "121", "type": "Feature", "properties": {"geographyName": "unincorporated_Kerens"}, "geometry": {"type": "Point", "coordinates": [-79.8136795, 39.0126051]}}, {"id": "122", "type": "Feature", "properties": {"geographyName": "unincorporated_Lost City"}, "geometry": {"type": "Point", "coordinates": [-78.8338255, 38.9307638]}}, {"id": "123", "type": "Feature", "properties": {"geographyName": "unincorporated_Mathias"}, "geometry": {"type": "Point", "coordinates": [-78.8657913, 38.8763142]}}, {"id": "124", "type": "Feature", "properties": {"geographyName": "unincorporated_Maxwelton"}, "geometry": {"type": "Point", "coordinates": [-80.4097972, 37.8662319]}}, {"id": "125", "type": "Feature", "properties": {"geographyName": "unincorporated_Old Fields"}, "geometry": {"type": "Point", "coordinates": [-78.9497488, 39.1348284]}}, {"id": "126", "type": "Feature", "properties": {"geographyName": "unincorporated_Preston"}, "geometry": {"type": "Point", "coordinates": [-79.6856122, 39.4350915]}}, {"id": "127", "type": "Feature", "properties": {"geographyName": "unincorporated_Proctor"}, "geometry": {"type": "Point", "coordinates": [-80.8237059, 39.7117436]}}, {"id": "128", "type": "Feature", "properties": {"geographyName": "unincorporated_Red House"}, "geometry": {"type": "Point", "coordinates": [-81.896801, 38.5392557]}}, {"id": "129", "type": "Feature", "properties": {"geographyName": "unincorporated_Summit Point"}, "geometry": {"type": "Point", "coordinates": [-77.9586082, 39.2495466]}}]}