{
"type": "FeatureCollection",
"crs": { "type": "name", "properties": { "name": "urn:ogc:def:crs:OGC:1.3:CRS84" } },
"features": [
{ "type": "Feature", "properties": { "name": "West Virginia" }, "geometry": { "type": "LineString", "coordinates": [ [ -82.643198239416691, 38.16909025011055 ], [ -82.611343141983397, 38.17154846496981 ], [ -82.599326148220655, 38.197231487700435 ], [ -82.598437151547458, 38.217393503107878 ], [ -82.608944150643779, 38.223660504810965 ], [ -82.612260152011316, 38.236087513198797 ], [ -82.605333155016055, 38.247303523611222 ], [ -82.584001158667121, 38.246371529024657 ], [ -82.574656162336069, 38.263873541388492 ], [ -82.583056164241015, 38.296829555507799 ], [ -82.571756168405386, 38.31719556895689 ], [ -82.576496168675689, 38.32812357307936 ], [ -82.597979166462778, 38.344909575347323 ], [ -82.592815170771516, 38.37760659322381 ], [ -82.599737170787037, 38.390370597645251 ], [ -82.594740172488784, 38.397844602823071 ], [ -82.597113173583537, 38.41288160968606 ], [ -82.593480175186599, 38.421821615208536 ], [ -82.587586175366241, 38.412741612340021 ], [ -82.571613177587608, 38.405138613095033 ], [ -82.540199183340874, 38.403666621340825 ], [ -82.404882210751211, 38.439347686131626 ], [ -82.381773213946303, 38.434783692419742 ], [ -82.330335224129044, 38.444500716515883 ], [ -82.318111228502744, 38.457876727903106 ], [ -82.304223237716386, 38.496308752747602 ], [ -82.303971240636159, 38.517683758797304 ], [ -82.295671244906998, 38.538483766664967 ], [ -82.291271251019154, 38.578983777560964 ], [ -82.262070259843583, 38.598183792624809 ], [ -82.205171271505137, 38.591719812457832 ], [ -82.188767275698851, 38.594984819339636 ], [ -82.177267279803672, 38.603784825558606 ], [ -82.17266728542188, 38.629684832846834 ], [ -82.19086728959202, 38.680383837089025 ], [ -82.182467296683015, 38.708782846293126 ], [ -82.195606300110811, 38.752441850477759 ], [ -82.216614295157584, 38.768350842831033 ], [ -82.221566295123651, 38.787187840904011 ], [ -82.209290300114148, 38.802672845025235 ], [ -82.191172306787621, 38.815137851139397 ], [ -82.161570316945173, 38.824632861175495 ], [ -82.144867323783529, 38.840480866557584 ], [ -82.139224328054098, 38.865020867901492 ], [ -82.145267327898594, 38.883479865449495 ], [ -82.143167330046111, 38.898079865814665 ], [ -82.111666344382414, 38.932579875260913 ], [ -82.109065346700035, 38.945579875730935 ], [ -82.091565356039794, 38.973778880479621 ], [ -82.051563372946248, 38.994378892395289 ], [ -82.037749379149403, 39.023865891321115 ], [ -82.005990390974915, 39.029387899894367 ], [ -81.991361396617492, 39.018378906397622 ], [ -81.979371400258586, 38.993193913973315 ], [ -81.951447412491746, 38.996032921012265 ], [ -81.933186418870918, 38.987659926189174 ], [ -81.898470423482863, 38.929603938772651 ], [ -81.92667140752404, 38.901311932898828 ], [ -81.928000405729023, 38.8934929329927 ], [ -81.898541413989832, 38.874582942176424 ], [ -81.889233417519165, 38.874279944750768 ], [ -81.855971433739924, 38.892734952622973 ], [ -81.845312441179971, 38.910088954310474 ], [ -81.844486445034846, 38.928746953228931 ], [ -81.827354455256938, 38.945898956559134 ], [ -81.814235460654871, 38.946168960007256 ], [ -81.785647468155659, 38.92619396912702 ], [ -81.762659476932129, 38.924121975437522 ], [ -81.756975482032217, 38.937152975884764 ], [ -81.778845477114757, 38.955892968591193 ], [ -81.781820477782063, 38.964935967096295 ], [ -81.77406248706319, 38.993682966829006 ], [ -81.765153492323151, 39.002579967924248 ], [ -81.764253493414301, 39.01527996477212 ], [ -81.803355478369127, 39.047678946437735 ], [ -81.811655475378188, 39.059578941308409 ], [ -81.81385547539125, 39.079278935693559 ], [ -81.803055480325384, 39.083878937119842 ], [ -81.77555449201742, 39.078378945222255 ], [ -81.74725350543639, 39.095378947223338 ], [ -81.742953508151018, 39.1065789447781 ], [ -81.743565509928331, 39.14193393515589 ], [ -81.755754506481765, 39.180976922545838 ], [ -81.737085516149037, 39.193836921924266 ], [ -81.72697352239949, 39.215068917350713 ], [ -81.692395540200096, 39.226443918217612 ], [ -81.696380539189164, 39.257035908467842 ], [ -81.683627544428887, 39.270939904375567 ], [ -81.643178564036532, 39.27719590623564 ], [ -81.603352583968075, 39.275531911179257 ], [ -81.570247601073149, 39.267675917969662 ], [ -81.565247602856701, 39.276175915004714 ], [ -81.557547601494122, 39.338774889928374 ], [ -81.456143645406883, 39.409274863661643 ], [ -81.435642655459716, 39.408474863001807 ], [ -81.412706667847857, 39.394618867850454 ], [ -81.393794680874365, 39.351706885516641 ], [ -81.375961690494293, 39.341697889092288 ], [ -81.347567704029075, 39.345770886110813 ], [ -81.2707167378897, 39.385914864979782 ], [ -81.241840751010002, 39.390276860263079 ], [ -81.217315761559092, 39.387590856047339 ], [ -81.208231763510767, 39.407147845287653 ], [ -81.185946770603493, 39.430731829788904 ], [ -81.170634776209965, 39.439175822606245 ], [ -81.132534791483124, 39.44627581095888 ], [ -81.100830759129352, 39.487173458394118 ], [ -81.070591755739585, 39.515989410240635 ], [ -80.970433784039173, 39.590125278652181 ], [ -80.925838813580725, 39.617394255049632 ], [ -80.892205829402684, 39.616754271437564 ], [ -80.880357837686134, 39.620704269673482 ], [ -80.866644867273308, 39.652614217019256 ], [ -80.863695897515328, 39.69172214583601 ], [ -80.833879930809516, 39.703495131783839 ], [ -80.829761941428771, 39.711837116789205 ], [ -80.846088948038172, 39.73781006383463 ], [ -80.865336937640919, 39.753249027027344 ], [ -80.869089932171775, 39.766361982171048 ], [ -80.863045935986591, 39.77519495469668 ], [ -80.826076955711372, 39.798581898805708 ], [ -80.822178951787706, 39.811705862349875 ], [ -80.826121934636987, 39.844235762426521 ], [ -80.790758928339415, 39.867277735895833 ], [ -80.793986916991443, 39.882784690151105 ], [ -80.809008904840695, 39.903223612181634 ], [ -80.80601589584127, 39.917127577675494 ], [ -80.795711891404707, 39.919687587609225 ], [ -80.762589892402559, 39.908903668765767 ], [ -80.756429886208537, 39.913927666518617 ], [ -80.764476854252734, 39.950247564985368 ], [ -80.758524842424606, 39.959238555041885 ], [ -80.740123824578049, 39.97079056865433 ], [ -80.741898796500323, 40.007926514716971 ], [ -80.730901806575702, 40.046669621091908 ], [ -80.73860180926637, 40.075669664286437 ], [ -80.709099835263373, 40.101469777716723 ], [ -80.710039848571725, 40.138308848139616 ], [ -80.704599860738568, 40.154820890244991 ], [ -80.668097930191763, 40.19966903498193 ], [ -80.661540960728303, 40.229796098035216 ], [ -80.652095987571769, 40.244968137617896 ], [ -80.619295043961728, 40.265168203862167 ], [ -80.614894042463135, 40.291967232138198 ], [ -80.59989305274533, 40.317667269980774 ], [ -80.612794026638952, 40.347666281048596 ], [ -80.60969301994966, 40.374966306414059 ], [ -80.630738000698159, 40.384898297689695 ], [ -80.633593997540302, 40.390465300518336 ], [ -80.612193008424825, 40.402665327322026 ], [ -80.612292997365174, 40.434865354017646 ], [ -80.596091990365977, 40.463364385439526 ], [ -80.595491984935649, 40.475264394791225 ], [ -80.618000980299215, 40.502047407581237 ], [ -80.627505056472529, 40.535791425235608 ], [ -80.667779148394672, 40.578094435763568 ], [ -80.662562177856913, 40.591598445721075 ], [ -80.627169244194931, 40.61993447715026 ], [ -80.598762260545769, 40.625261492381803 ], [ -80.576734238236426, 40.614222494431779 ], [ -80.55112427659067, 40.628845514839107 ], [ -80.518989306298423, 40.63879953539341 ], [ -80.519339873435356, 39.721401450180338 ], [ -79.476659990166766, 39.721076049425626 ], [ -79.486873098481453, 39.205960796232496 ], [ -79.47321508117291, 39.202106790440254 ], [ -79.465451081406499, 39.209397788148109 ], [ -79.454561071657992, 39.210200783901278 ], [ -79.425627058904865, 39.225724773413113 ], [ -79.420350066580681, 39.238879772036029 ], [ -79.400243056739242, 39.250857763830936 ], [ -79.387753044378471, 39.267461755117559 ], [ -79.353750008395792, 39.278038737665881 ], [ -79.350983005373763, 39.285243734815175 ], [ -79.343800997617791, 39.286095731345405 ], [ -79.346010999885806, 39.293959730581683 ], [ -79.31476796533903, 39.304380713590874 ], [ -79.290235938747202, 39.299322703418191 ], [ -79.282036927599265, 39.323047693268563 ], [ -79.270834914440158, 39.32854168637661 ], [ -79.267555909891087, 39.336293682646058 ], [ -79.253890894208851, 39.337221675694664 ], [ -79.256307894515558, 39.357226671203719 ], [ -79.232918863603842, 39.359621658259073 ], [ -79.231647861022665, 39.364569656123756 ], [ -79.214279837409379, 39.36348164718278 ], [ -79.197130807611444, 39.38859463029145 ], [ -79.184951791155655, 39.385247624725437 ], [ -79.176958778682859, 39.389027619199162 ], [ -79.178638778854975, 39.39663161771135 ], [ -79.162051757618997, 39.388320611328496 ], [ -79.166496759931462, 39.400887609715149 ], [ -79.159014745691366, 39.41079660241153 ], [ -79.160147745494683, 39.416379601233828 ], [ -79.151240732003487, 39.416967596107774 ], [ -79.149751733817112, 39.405725598958554 ], [ -79.143750725209784, 39.405201595831805 ], [ -79.142309718779273, 39.416686591250986 ], [ -79.128380697674814, 39.417480583266915 ], [ -79.129046693769112, 39.429541579594691 ], [ -79.110601664293185, 39.432699568200931 ], [ -79.116368669720643, 39.440481568786232 ], [ -79.102468643231404, 39.451179557259202 ], [ -79.107183562437399, 39.462004020794751 ], [ -79.094546561801408, 39.465182055548937 ], [ -79.103600542293506, 39.470026047122708 ], [ -79.1031875257694, 39.476002061855652 ], [ -79.083267551325434, 39.471377094484964 ], [ -79.068624551370917, 39.474513133715156 ], [ -79.066227536900016, 39.479942151716934 ], [ -79.058090568891387, 39.470809147916562 ], [ -79.052444538094406, 39.482313187441441 ], [ -79.047047538175931, 39.483349201704151 ], [ -79.03034060302781, 39.465401195337847 ], [ -79.017144606730639, 39.466975227749501 ], [ -78.96548340737948, 39.438454489217982 ], [ -78.956750384856548, 39.440263484790925 ], [ -78.959960384411858, 39.451643481848635 ], [ -78.954292368376841, 39.454702478274079 ], [ -78.959211672671273, 39.461891363570345 ], [ -78.940945659476782, 39.470539432823472 ], [ -78.942615626029436, 39.479612448903289 ], [ -78.938748614686887, 39.483730468533459 ], [ -78.916485622521307, 39.486542533946256 ], [ -78.903885593373474, 39.504714603740041 ], [ -78.905510608693007, 39.511543610066774 ], [ -78.892933619967181, 39.512753644119776 ], [ -78.893314645660737, 39.523754659524222 ], [ -78.874741654540742, 39.522609704520583 ], [ -78.870684693651427, 39.538765737123946 ], [ -78.86142870369126, 39.540963762677741 ], [ -78.851928732678545, 39.551846799944954 ], [ -78.851193750677041, 39.559922812182776 ], [ -78.838550772306434, 39.567298850997211 ], [ -78.816761770393626, 39.561689894973199 ], [ -78.813509784105534, 39.567718909377625 ], [ -78.826357798500439, 39.577331891094893 ], [ -78.826006822527745, 39.588827905509632 ], [ -78.812212845278623, 39.597715946040765 ], [ -78.809344866949047, 39.60806196375605 ], [ -78.79585486835046, 39.606932991282143 ], [ -78.801738907381548, 39.6274870008248 ], [ -78.795279926675889, 39.63676502370668 ], [ -78.781338928773508, 39.636786051588196 ], [ -78.775238946283849, 39.645686072279659 ], [ -78.765837952437977, 39.648486093243925 ], [ -78.7784749026209, 39.622649043601136 ], [ -78.763168898965546, 39.618896071786409 ], [ -78.748496917668803, 39.626261107550157 ], [ -78.736186932547184, 39.621707121845368 ], [ -78.733756923123494, 39.6139301193219 ], [ -78.747060884005208, 39.605689092548083 ], [ -78.751511885736249, 39.609946088435066 ], [ -78.768112879146656, 39.608703052098548 ], [ -78.778138862706072, 39.601363023682651 ], [ -78.756744832030961, 39.580689051842022 ], [ -78.746418838948244, 39.579543071866027 ], [ -78.733976873748816, 39.586617097559397 ], [ -78.725007848816418, 39.563972094800924 ], [ -78.694623881831916, 39.553250138726249 ], [ -78.689452876682068, 39.545769142878115 ], [ -78.655981912373505, 39.534694195393108 ], [ -78.623034977709025, 39.539511255830973 ], [ -78.602259997792331, 39.532111290015017 ], [ -78.591631025604443, 39.536890310352469 ], [ -78.587789013409349, 39.527911314723553 ], [ -78.565927032032533, 39.519443352453251 ], [ -78.521386117743134, 39.524789434177727 ], [ -78.471164119312874, 39.516102510316436 ], [ -78.462897127433706, 39.520839520629373 ], [ -78.462847166107949, 39.535757519714274 ], [ -78.448640172928208, 39.539959537451459 ], [ -78.460121191644305, 39.545847522496722 ], [ -78.460222205636683, 39.551183522008763 ], [ -78.451081201264088, 39.550191533598245 ], [ -78.438355166575363, 39.538752550592271 ], [ -78.434757180417506, 39.543987554707797 ], [ -78.437395207871845, 39.553471550574436 ], [ -78.423973181001045, 39.545102568245106 ], [ -78.417584185630957, 39.547154576120469 ], [ -78.426535222701105, 39.559154563716525 ], [ -78.454374266345368, 39.574318527716493 ], [ -78.457185300824648, 39.587378523311507 ], [ -78.44317331330349, 39.591154540297531 ], [ -78.408029280709641, 39.57859258488137 ], [ -78.395315299549395, 39.584214600005375 ], [ -78.397469318482351, 39.590231596664793 ], [ -78.425579364649977, 39.607598560435783 ], [ -78.433621392501124, 39.618258549707001 ], [ -78.430248408470163, 39.623289553345145 ], [ -78.420547415201483, 39.624020564992719 ], [ -78.37473038479385, 39.608634622296918 ], [ -78.372402398083608, 39.612296624654626 ], [ -78.382957427206591, 39.622245610596423 ], [ -78.382485447266106, 39.628215610429621 ], [ -78.355768454021259, 39.626257642885754 ], [ -78.35367147130016, 39.630786644760946 ], [ -78.35950449392962, 39.638080636725277 ], [ -78.351903507180225, 39.640485645475593 ], [ -78.266831465630418, 39.61881775166087 ], [ -78.254075566600321, 39.640088762516342 ], [ -78.2235955665425, 39.661096803366995 ], [ -78.233010641649088, 39.670470787459919 ], [ -78.231562652832423, 39.674381789158758 ], [ -78.202943550612304, 39.676652834515465 ], [ -78.182757538366033, 39.695109867480809 ], [ -78.10783219286526, 39.682136988168558 ], [ -78.074593027234613, 39.666686034889871 ], [ -78.035989831254042, 39.635720076313575 ], [ -78.00673169096855, 39.601337093750068 ], [ -77.976683608282897, 39.599744082642154 ], [ -77.957639563742305, 39.608614071293211 ], [ -77.95059654187061, 39.603944063351562 ], [ -77.949833530671199, 39.58711005615546 ], [ -77.942147510575111, 39.584933049936929 ], [ -77.935447502756034, 39.608076051928514 ], [ -77.944619532014855, 39.616772062902598 ], [ -77.937489512749409, 39.619150057040677 ], [ -77.9232954688012, 39.604852040802328 ], [ -77.888474376299229, 39.5973430119056 ], [ -77.880990355328365, 39.602852005495684 ], [ -77.885121363557957, 39.615775008045453 ], [ -77.833565228572596, 39.602935966334314 ], [ -77.829811232112277, 39.58728797037508 ], [ -77.836327264866156, 39.566369983619744 ], [ -77.878448360170168, 39.563493007863919 ], [ -77.888942384646171, 39.555950013907761 ], [ -77.865348342526161, 39.538381005858795 ], [ -77.863677350283837, 39.515032010319686 ], [ -77.841917312128189, 39.518470004562687 ], [ -77.836932293021505, 39.532169997851689 ], [ -77.825354274465994, 39.529176995528132 ], [ -77.825647286248284, 39.51689500158232 ], [ -77.845100326154082, 39.505845009695427 ], [ -77.84566333058109, 39.4986280117418 ], [ -77.801827261299536, 39.489395007370305 ], [ -77.791762246841472, 39.4907890064339 ], [ -77.781605236739551, 39.499067005393279 ], [ -77.765990211451111, 39.495724003915733 ], [ -77.769122212310805, 39.490281004327336 ], [ -77.796692248579149, 39.480498006898266 ], [ -77.795631241749462, 39.471259006816815 ], [ -77.777812206979675, 39.461924005524509 ], [ -77.798465240539002, 39.460670007032945 ], [ -77.785577497075209, 39.445366954225506 ], [ -77.803246507779818, 39.437135955424672 ], [ -77.792748477822769, 39.430592957798012 ], [ -77.754678402503984, 39.424657961574333 ], [ -77.736406323174165, 39.392683963753889 ], [ -77.73808130824257, 39.386210966562821 ], [ -77.753386302585483, 39.382093973053486 ], [ -77.743871246873809, 39.359946976838316 ], [ -77.761112222371622, 39.339756983991926 ], [ -77.719943168335874, 39.319692982527457 ], [ -77.734896143551424, 39.312408988535573 ], [ -77.750264081492986, 39.289283998078417 ], [ -77.762841044343119, 39.258445005730287 ], [ -77.770278059229526, 39.25597700603516 ], [ -77.770873047734852, 39.249760007622164 ], [ -77.76727403762753, 39.249380007807559 ], [ -77.771412045445103, 39.236776008054363 ], [ -77.793628093383944, 39.2101250079211 ], [ -77.805096103348191, 39.174222008617264 ], [ -77.821410126364682, 39.152410008576098 ], [ -77.822179120022739, 39.139985008968182 ], [ -77.828154126901381, 39.132329008938179 ], [ -78.347084988396219, 39.466011665888729 ], [ -78.346543945448261, 39.442615592357029 ], [ -78.353224954275575, 39.436791589967228 ], [ -78.346715942586954, 39.427617598814692 ], [ -78.359915961102217, 39.40902759777196 ], [ -78.349433941112324, 39.397251610303861 ], [ -78.350921942636788, 39.390984612085902 ], [ -78.343211928102917, 39.388806618193641 ], [ -78.366864969478868, 39.359289616313724 ], [ -78.340477914235677, 39.353491635184504 ], [ -78.339281910484488, 39.3486046380064 ], [ -78.347406926591844, 39.343401635387011 ], [ -78.360032950753038, 39.317770639641054 ], [ -78.364683961529536, 39.317311637265952 ], [ -78.393369032256189, 39.282987638859503 ], [ -78.402884057454031, 39.278623636367051 ], [ -78.419420106605386, 39.257475639817727 ], [ -78.399667042537303, 39.243873654480083 ], [ -78.405583035855202, 39.231175655337658 ], [ -78.438649064580076, 39.198048652508724 ], [ -78.424903018717799, 39.193300658906956 ], [ -78.426313002883205, 39.182761661682179 ], [ -78.403694914758574, 39.167450673316523 ], [ -78.427291949517411, 39.152725670728529 ], [ -78.439426942334862, 39.132145674223288 ], [ -78.459866958643929, 39.113350676255131 ], [ -78.495158023397195, 39.100991674291642 ], [ -78.52271206258753, 39.071061683149409 ], [ -78.57189918824723, 39.031994699604304 ], [ -78.550465077541801, 39.018064708727962 ], [ -78.570460133341996, 39.001551718282087 ], [ -78.601653282170332, 38.964602677065251 ], [ -78.611182315160136, 38.97613369297774 ], [ -78.618674347131915, 38.974081692365537 ], [ -78.620451350337618, 38.982600701740672 ], [ -78.625670372046059, 38.982574702539516 ], [ -78.638421431624167, 38.966818690267523 ], [ -78.646587464580222, 38.968137693714965 ], [ -78.659048522767691, 38.947374681799531 ], [ -78.680454614672811, 38.925312678841436 ], [ -78.688264645591076, 38.924779683445742 ], [ -78.718645767694085, 38.904560697375601 ], [ -78.717074757748989, 38.936027704552295 ], [ -78.738919845122126, 38.927282715488673 ], [ -78.759083908823612, 38.900528717664848 ], [ -78.786023964478218, 38.887186702204694 ], [ -78.869275032567373, 38.762990595967132 ], [ -78.993996335745152, 38.850101550006869 ], [ -78.998170338480449, 38.84735254429858 ], [ -79.006551305217684, 38.823711519248391 ], [ -79.019552306905226, 38.817911513711714 ], [ -79.027252269546921, 38.792112487526119 ], [ -79.046553288756314, 38.792112487847639 ], [ -79.054953286571148, 38.785712481370226 ], [ -79.05155326141994, 38.772612467794943 ], [ -79.057553247370521, 38.760212455014759 ], [ -79.072554229441835, 38.747512453284308 ], [ -79.092753885754419, 38.702314654517956 ], [ -79.084353772391736, 38.686515701653668 ], [ -79.092953540567891, 38.659516843824498 ], [ -79.106354474206, 38.656216911337246 ], [ -79.120254469948193, 38.66021594400523 ], [ -79.129755393181881, 38.655017010951134 ], [ -79.151254963770484, 38.620618333307419 ], [ -79.158654621391051, 38.592319576881096 ], [ -79.170955273566122, 38.568120844929176 ], [ -79.205855470811599, 38.524522512174428 ], [ -79.21058713582778, 38.492914739301767 ], [ -79.22566506355497, 38.476472779383009 ], [ -79.24005496104607, 38.469842873877631 ], [ -79.242637012023508, 38.454169782211018 ], [ -79.254430976517995, 38.455950826851272 ], [ -79.267410165436488, 38.438323587299308 ], [ -79.282758315220505, 38.431648415532358 ], [ -79.279674320469155, 38.424174389020422 ], [ -79.28296736894599, 38.418096321831769 ], [ -79.290525415534191, 38.42075828108036 ], [ -79.312272604745829, 38.411877058229017 ], [ -79.476635902571658, 38.457227898040038 ], [ -79.521467365313342, 38.533917744901039 ], [ -79.536868424269684, 38.55091674615781 ], [ -79.649073509585165, 38.591514775679066 ], [ -79.662873409674745, 38.570415789502427 ], [ -79.659273378479838, 38.562415791351171 ], [ -79.665073367666366, 38.560915794278351 ], [ -79.669273316020195, 38.549515800691779 ], [ -79.666872270321548, 38.538316804341498 ], [ -79.67297222477022, 38.528716810906865 ], [ -79.662072177303386, 38.515516811675262 ], [ -79.670472137516398, 38.507716818588065 ], [ -79.680372141973123, 38.510616821738935 ], [ -79.68297210033586, 38.501316826850939 ], [ -79.697570162464658, 38.487222737321289 ], [ -79.693422200651824, 38.481010691011917 ], [ -79.698927271178349, 38.469868605347543 ], [ -79.688363339624885, 38.456869516404524 ], [ -79.689673489781981, 38.431438329287985 ], [ -79.706632635814017, 38.415729175997278 ], [ -79.726348916214704, 38.387068887897676 ], [ -79.7316970479107, 38.373374752175309 ], [ -79.725596088158824, 38.363826693498041 ], [ -79.740614253576283, 38.354099547224124 ], [ -79.764431302212344, 38.35651260530242 ], [ -79.77308946921373, 38.335527472284028 ], [ -79.79654954395518, 38.323478518109482 ], [ -79.810153632345532, 38.30670548172511 ], [ -79.802777734349888, 38.292071320803323 ], [ -79.795447762640293, 38.290226252635186 ], [ -79.789790837437906, 38.28116513864363 ], [ -79.788944925254214, 38.268701032592787 ], [ -79.806332924997861, 38.259191102946829 ], [ -79.811986896729806, 38.260399159259777 ], [ -79.819622906880852, 38.248232150855848 ], [ -79.830881874276756, 38.249685248627443 ], [ -79.835123781071786, 38.241890284576513 ], [ -79.84520673311448, 38.241080370550115 ], [ -79.891590247581846, 38.204650721177778 ], [ -79.898425132708979, 38.193043758579286 ], [ -79.916343031234817, 38.186276882759635 ], [ -79.921194974209612, 38.18037690811331 ], [ -79.916620967259931, 38.177992870415153 ], [ -79.91891190450967, 38.170437873620962 ], [ -79.914882891036171, 38.167522839889401 ], [ -79.919513844264159, 38.16264786391546 ], [ -79.918660786380428, 38.154788843964404 ], [ -79.933749619963208, 38.135506906900112 ], [ -79.944841577946406, 38.131583969384515 ], [ -79.938950443958305, 38.111617888293381 ], [ -79.926328420265108, 38.107149804263095 ], [ -79.95436722365919, 38.080395902716738 ], [ -79.973698927517205, 38.032554868920975 ], [ -79.994982813707807, 38.007851881421935 ], [ -79.999381741621647, 37.995840895145442 ], [ -80.074511279623835, 37.942220444241372 ], [ -80.096560094422742, 37.918111613029069 ], [ -80.102928102925858, 37.918910628817819 ], [ -80.118963993156441, 37.903613730906621 ], [ -80.117743947939701, 37.897719748678512 ], [ -80.123616953021099, 37.897942763295994 ], [ -80.141943851561294, 37.882615860091825 ], [ -80.148947887681373, 37.886891863608568 ], [ -80.162198813323585, 37.875121929401203 ], [ -80.183058661970037, 37.850646037335977 ], [ -80.179387582651685, 37.839751058427403 ], [ -80.199629524576324, 37.827507119219177 ], [ -80.206478457043275, 37.81597015350728 ], [ -80.227088376993962, 37.798886209755338 ], [ -80.229485338955683, 37.792331223421911 ], [ -80.215654218560815, 37.77748124036377 ], [ -80.230454251051412, 37.778305248246511 ], [ -80.24143320692265, 37.768058270941467 ], [ -80.247973222409826, 37.768511273382764 ], [ -80.249786155451503, 37.757111290086385 ], [ -80.257407200652708, 37.756084292833791 ], [ -80.262761260201202, 37.738336282290994 ], [ -80.252020230106055, 37.729825267497525 ], [ -80.253073257485269, 37.725899261183429 ], [ -80.296134712151812, 37.691783204047027 ], [ -80.279368774144061, 37.657077145712293 ], [ -80.267451755590415, 37.646108129041288 ], [ -80.220980648603145, 37.627767098533781 ], [ -80.240268817912821, 37.606961067420237 ], [ -80.258915961547515, 37.595499047323955 ], [ -80.328501494099044, 37.564314968793383 ], [ -80.312390491266186, 37.546238942740509 ], [ -80.330303629338673, 37.536243916411671 ], [ -80.309343563184683, 37.527380910472523 ], [ -80.291641429942942, 37.536504935051994 ], [ -80.282382397084206, 37.533516934298312 ], [ -80.299786605509908, 37.508270881645046 ], [ -80.327100779110467, 37.495375836511606 ], [ -80.366835982743211, 37.484878777931932 ], [ -80.363167969451894, 37.48000076382916 ], [ -80.371950019732139, 37.474068738225434 ], [ -80.47559964808481, 37.422948482074595 ], [ -80.494865727593961, 37.435069512073262 ], [ -80.497278718795727, 37.444778546724017 ], [ -80.492979667210264, 37.457748598488983 ], [ -80.511389678815092, 37.481671679257289 ], [ -80.552034798470288, 37.473562630887074 ], [ -80.62266301709127, 37.433306426890134 ], [ -80.634389043600621, 37.431226410671684 ], [ -80.705202197344278, 37.394617195422441 ], [ -80.770081301738401, 37.372362035756538 ], [ -80.784187332217016, 37.394586131543527 ], [ -80.806128370789921, 37.398073129729504 ], [ -80.808768377708844, 37.406270166529929 ], [ -80.837677433038095, 37.425657232684379 ], [ -80.846323447210111, 37.423393214251142 ], [ -80.859555471800491, 37.429567231079915 ], [ -80.865147478482797, 37.419926181192913 ], [ -80.862760471930343, 37.411828145673951 ], [ -80.883247498496345, 37.383931999209928 ], [ -80.849450429591641, 37.346907853685742 ], [ -80.868985460308465, 37.338571800567649 ], [ -80.900534506641833, 37.314998670012841 ], [ -80.94789558085084, 37.295870552572005 ], [ -80.973888623400256, 37.291442516539604 ], [ -80.981321636632288, 37.293463520792514 ], [ -80.979588636573766, 37.302277560707388 ], [ -81.094820208221961, 37.28263825468332 ], [ -81.167029686388659, 37.262879042777321 ], [ -81.225105048383924, 37.234871938501222 ], [ -81.320105555200712, 37.299321093007038 ], [ -81.362156188730964, 37.337685326280123 ], [ -81.374455159263405, 37.318612282975124 ], [ -81.38672708120815, 37.320472320183789 ], [ -81.394287042107479, 37.316409320824519 ], [ -81.396817045183013, 37.304496274449271 ], [ -81.405060000055229, 37.2987922663728 ], [ -81.416662951960404, 37.27321216940674 ], [ -81.447654730419913, 37.272243214900783 ], [ -81.480143488500246, 37.251119145133721 ], [ -81.492286395114675, 37.250958159494814 ], [ -81.498873350482967, 37.258023210895146 ], [ -81.507324371475008, 37.233798124515076 ], [ -81.544436373954326, 37.220759056418288 ], [ -81.553599394744552, 37.208441007287057 ], [ -81.678209294244283, 37.201480800956176 ], [ -81.68354327326081, 37.211449852896521 ], [ -81.695112259797, 37.213567851531472 ], [ -81.715729220112294, 37.228768928212688 ], [ -81.723060198030097, 37.240491002022168 ], [ -81.738542189724981, 37.238261976156018 ], [ -81.744002180253432, 37.24252600356504 ], [ -81.740973178188213, 37.254050086267178 ], [ -81.757630163031138, 37.274001195853437 ], [ -81.77468308384249, 37.274805158727446 ], [ -81.789293044099793, 37.284414187263778 ], [ -81.793424017453177, 37.281672158530419 ], [ -81.805380979243097, 37.285620155865423 ], [ -81.819623891581458, 37.279409078309264 ], [ -81.838760840780012, 37.286341078790834 ], [ -81.849947787172354, 37.285225043567969 ], [ -81.853549786117213, 37.287699051910955 ], [ -81.854458892501583, 37.30656818093118 ], [ -81.859622864202876, 37.304763155982691 ], [ -81.865681873189871, 37.309482174427131 ], [ -81.860265928653945, 37.315713230799126 ], [ -81.878711984194283, 37.331751299886143 ], [ -81.893771937424674, 37.330103253320083 ], [ -81.899494009402559, 37.34110031802976 ], [ -81.91667704719778, 37.349344337597721 ], [ -81.933381206069114, 37.369339443661808 ], [ -81.931059263502604, 37.375464492810622 ], [ -81.936743310485198, 37.380728518326841 ], [ -81.928777430299959, 37.393843629795114 ], [ -81.930041534696869, 37.405289709354257 ], [ -81.923480582548024, 37.411377766718459 ], [ -81.936949677855154, 37.41991880031992 ], [ -81.940552770330129, 37.429056858893325 ], [ -81.935620848035242, 37.438395936131322 ], [ -81.957427007188869, 37.449049970116619 ], [ -81.970383028034291, 37.447686934752426 ], [ -81.968795064664832, 37.451494965685761 ], [ -81.976176148618165, 37.457184992956002 ], [ -81.987006155543895, 37.454876955004863 ], [ -81.995649359270232, 37.469832048664429 ], [ -81.99291650399546, 37.482968150758502 ], [ -81.977593457805426, 37.484602191197844 ], [ -81.964986497949027, 37.493487279343434 ], [ -81.953264426053479, 37.491762288222915 ], [ -81.953147506235638, 37.501313352284122 ], [ -81.927194360237806, 37.515331440156615 ], [ -81.934057386697688, 37.519468440766033 ], [ -81.943865442609095, 37.512878404182828 ], [ -81.947660440929639, 37.525079435077423 ], [ -81.944010415049362, 37.530963459018309 ], [ -81.953524462690979, 37.528055434649488 ], [ -81.957379467638134, 37.535197450714705 ], [ -81.967583517347435, 37.53281442692434 ], [ -81.964971486692164, 37.543025463543721 ], [ -81.970147502307398, 37.54650346675021 ], [ -81.994033624461736, 37.537611400697052 ], [ -81.999844638283605, 37.542578408430664 ], [ -82.00919462050895, 37.533242390213026 ], [ -82.015920588655547, 37.534320403788769 ], [ -82.018878563038797, 37.540571428552205 ], [ -82.028826525899632, 37.537666433615456 ], [ -82.04282544828871, 37.548360487059099 ], [ -82.042397473233351, 37.533915441852244 ], [ -82.046653463292685, 37.528192430684527 ], [ -82.049584439746482, 37.535221456510683 ], [ -82.064418372956979, 37.536869483267445 ], [ -82.064418363690578, 37.544515505663874 ], [ -82.075030307531208, 37.555823552892043 ], [ -82.103144196647264, 37.55277558218674 ], [ -82.104808186250978, 37.560190603986662 ], [ -82.117304137491388, 37.559225617743706 ], [ -82.123824113002939, 37.551388606664077 ], [ -82.133247074581334, 37.552831622999093 ], [ -82.134424070170567, 37.562927649044823 ], [ -82.144648031736509, 37.568314674758703 ], [ -82.12730309686836, 37.57268066407385 ], [ -82.124307107213284, 37.57780567324712 ], [ -82.12732109553103, 37.586666698693463 ], [ -82.132284078387912, 37.593326720417743 ], [ -82.156717996734898, 37.592789745046154 ], [ -82.156741003772183, 37.609201782174011 ], [ -82.168533967483128, 37.608691792181958 ], [ -82.164190987277721, 37.620191813450077 ], [ -82.176681950065216, 37.618201820020005 ], [ -82.181429939528059, 37.62184183176511 ], [ -82.181690943449496, 37.627146843022274 ], [ -82.17244597256601, 37.63258884719226 ], [ -82.177510965523169, 37.640416867629497 ], [ -82.175263976893163, 37.647970882083705 ], [ -82.190755937410572, 37.645136886630731 ], [ -82.187297927937777, 37.626934847147204 ], [ -82.213442853999339, 37.625219865264555 ], [ -82.220199848922178, 37.633911886507811 ], [ -82.216847869232609, 37.64159789797889 ], [ -82.240409849421312, 37.661566947713084 ], [ -82.257110823654031, 37.656748948018347 ], [ -82.27202084735481, 37.663781964169019 ], [ -82.282296877102226, 37.675825985965815 ], [ -82.288173865835873, 37.668226976390258 ], [ -82.294392873732505, 37.670447981775531 ], [ -82.294736888691546, 37.678276993565497 ], [ -82.303952889112892, 37.675759992734498 ], [ -82.296117904283747, 37.686174005751738 ], [ -82.302885921612116, 37.693683018821339 ], [ -82.296633934994333, 37.702403030045069 ], [ -82.307234949223812, 37.707669040529673 ], [ -82.318879000223916, 37.733763081036948 ], [ -82.334035020670868, 37.743227097329857 ], [ -82.310777032871428, 37.762692118820496 ], [ -82.333994038523869, 37.765080124957009 ], [ -82.323696040759287, 37.775028135642494 ], [ -82.337596043536266, 37.775369137735552 ], [ -82.339705048153462, 37.785509150062914 ], [ -82.376169061088149, 37.802030172588928 ], [ -82.386586068897373, 37.81821219146412 ], [ -82.396978067108009, 37.809014181897531 ], [ -82.401652068247401, 37.810091183387819 ], [ -82.399680075161967, 37.829935204991322 ], [ -82.412119081864802, 37.843891220421384 ], [ -82.420616083930454, 37.846663223464454 ], [ -82.41487808656052, 37.856240233679422 ], [ -82.42467408967002, 37.861897239572194 ], [ -82.407513089633468, 37.867297245709373 ], [ -82.41819709217242, 37.87121324961003 ], [ -82.419929097093515, 37.884870264071843 ], [ -82.462881110448066, 37.914832291575365 ], [ -82.467679110587142, 37.914204290470195 ], [ -82.468226107379039, 37.90356727992615 ], [ -82.474407106782465, 37.899955275885382 ], [ -82.475534110458142, 37.911945287482119 ], [ -82.488346113037295, 37.917724291758709 ], [ -82.480338114895659, 37.925836300448609 ], [ -82.497271116403212, 37.927621300117003 ], [ -82.502198117676144, 37.933052304239553 ], [ -82.489514118911842, 37.93793531088091 ], [ -82.497719121475498, 37.945660317004517 ], [ -82.485120121052773, 37.946044319265305 ], [ -82.471555124415261, 37.959055334072524 ], [ -82.483987126049229, 37.963343336061115 ], [ -82.484260128399086, 37.971383343735646 ], [ -82.469380128607867, 37.973059348229363 ], [ -82.464257131706532, 37.983412359496803 ], [ -82.483968132099434, 37.984093356006589 ], [ -82.489236136421709, 37.998980369075731 ], [ -82.519193133084556, 38.001131362934935 ], [ -82.515650134617161, 38.006690368121149 ], [ -82.52259113421492, 38.012968370888331 ], [ -82.525817135627392, 38.026406380094265 ], [ -82.538639134820457, 38.037381384729898 ], [ -82.537293136274286, 38.045204390998798 ], [ -82.54958013749966, 38.06857940510983 ], [ -82.58403913437364, 38.090663411946345 ], [ -82.587782136511919, 38.108879424578255 ], [ -82.60658913486499, 38.120843428224305 ], [ -82.619452132444565, 38.120745424492831 ], [ -82.622125133955166, 38.133414433249179 ], [ -82.636466131996812, 38.137860432506358 ], [ -82.643198239416691, 38.16909025011055 ] ] } }
]
}
