{"type": "FeatureCollection", "features": [{"id": "0", "type": "Feature", "properties": {"name": "West Virginia"}, "geometry": {"type": "LineString", "coordinates": [[-82.64319823941669, 38.16909025011055], [-82.6113431419834, 38.17154846496981], [-82.59932614822065, 38.197231487700435], [-82.59843715154746, 38.21739350310788], [-82.60894415064378, 38.223660504810965], [-82.61226015201132, 38.2360875131988], [-82.60533315501606, 38.24730352361122], [-82.58400115866712, 38.24637152902466], [-82.57465616233607, 38.26387354138849], [-82.58305616424101, 38.2968295555078], [-82.57175616840539, 38.31719556895689], [-82.57649616867569, 38.32812357307936], [-82.59797916646278, 38.34490957534732], [-82.59281517077152, 38.37760659322381], [-82.59973717078704, 38.39037059764525], [-82.59474017248878, 38.39784460282307], [-82.59711317358354, 38.41288160968606], [-82.5934801751866, 38.421821615208536], [-82.58758617536624, 38.41274161234002], [-82.57161317758761, 38.40513861309503], [-82.54019918334087, 38.403666621340825], [-82.40488221075121, 38.439347686131626], [-82.3817732139463, 38.43478369241974], [-82.33033522412904, 38.44450071651588], [-82.31811122850274, 38.457876727903106], [-82.30422323771639, 38.4963087527476], [-82.30397124063616, 38.517683758797304], [-82.295671244907, 38.53848376666497], [-82.29127125101915, 38.578983777560964], [-82.26207025984358, 38.59818379262481], [-82.20517127150514, 38.59171981245783], [-82.18876727569885, 38.594984819339636], [-82.17726727980367, 38.603784825558606], [-82.17266728542188, 38.629684832846834], [-82.19086728959202, 38.680383837089025], [-82.18246729668301, 38.708782846293126], [-82.19560630011081, 38.75244185047776], [-82.21661429515758, 38.76835084283103], [-82.22156629512365, 38.78718784090401], [-82.20929030011415, 38.802672845025235], [-82.19117230678762, 38.8151378511394], [-82.16157031694517, 38.824632861175495], [-82.14486732378353, 38.840480866557584], [-82.1392243280541, 38.86502086790149], [-82.1452673278986, 38.883479865449495], [-82.14316733004611, 38.898079865814665], [-82.11166634438241, 38.93257987526091], [-82.10906534670004, 38.945579875730935], [-82.0915653560398, 38.97377888047962], [-82.05156337294625, 38.99437889239529], [-82.0377493791494, 39.023865891321115], [-82.00599039097492, 39.02938789989437], [-81.99136139661749, 39.01837890639762], [-81.97937140025859, 38.993193913973315], [-81.95144741249175, 38.996032921012265], [-81.93318641887092, 38.987659926189174], [-81.89847042348286, 38.92960393877265], [-81.92667140752404, 38.90131193289883], [-81.92800040572902, 38.8934929329927], [-81.89854141398983, 38.874582942176424], [-81.88923341751916, 38.87427994475077], [-81.85597143373992, 38.89273495262297], [-81.84531244117997, 38.910088954310474], [-81.84448644503485, 38.92874695322893], [-81.82735445525694, 38.945898956559134], [-81.81423546065487, 38.946168960007256], [-81.78564746815566, 38.92619396912702], [-81.76265947693213, 38.92412197543752], [-81.75697548203222, 38.937152975884764], [-81.77884547711476, 38.95589296859119], [-81.78182047778206, 38.964935967096295], [-81.77406248706319, 38.993682966829006], [-81.76515349232315, 39.00257996792425], [-81.7642534934143, 39.01527996477212], [-81.80335547836913, 39.047678946437735], [-81.81165547537819, 39.05957894130841], [-81.81385547539125, 39.07927893569356], [-81.80305548032538, 39.08387893711984], [-81.77555449201742, 39.078378945222255], [-81.74725350543639, 39.09537894722334], [-81.74295350815102, 39.1065789447781], [-81.74356550992833, 39.14193393515589], [-81.75575450648176, 39.18097692254584], [-81.73708551614904, 39.193836921924266], [-81.72697352239949, 39.21506891735071], [-81.6923955402001, 39.22644391821761], [-81.69638053918916, 39.25703590846784], [-81.68362754442889, 39.27093990437557], [-81.64317856403653, 39.27719590623564], [-81.60335258396807, 39.27553191117926], [-81.57024760107315, 39.26767591796966], [-81.5652476028567, 39.276175915004714], [-81.55754760149412, 39.338774889928374], [-81.45614364540688, 39.40927486366164], [-81.43564265545972, 39.40847486300181], [-81.41270666784786, 39.394618867850454], [-81.39379468087436, 39.35170688551664], [-81.3759616904943, 39.34169788909229], [-81.34756770402907, 39.34577088611081], [-81.2707167378897, 39.38591486497978], [-81.24184075101, 39.39027686026308], [-81.21731576155909, 39.38759085604734], [-81.20823176351077, 39.40714784528765], [-81.1859467706035, 39.430731829788904], [-81.17063477620997, 39.439175822606245], [-81.13253479148312, 39.44627581095888], [-81.10083075912935, 39.48717345839412], [-81.07059175573958, 39.515989410240635], [-80.97043378403917, 39.59012527865218], [-80.92583881358073, 39.61739425504963], [-80.89220582940268, 39.616754271437564], [-80.88035783768613, 39.62070426967348], [-80.86664486727331, 39.652614217019256], [-80.86369589751533, 39.69172214583601], [-80.83387993080952, 39.70349513178384], [-80.82976194142877, 39.711837116789205], [-80.84608894803817, 39.73781006383463], [-80.86533693764092, 39.753249027027344], [-80.86908993217178, 39.76636198217105], [-80.86304593598659, 39.77519495469668], [-80.82607695571137, 39.79858189880571], [-80.8221789517877, 39.811705862349875], [-80.82612193463699, 39.84423576242652], [-80.79075892833941, 39.86727773589583], [-80.79398691699144, 39.882784690151105], [-80.8090089048407, 39.903223612181634], [-80.80601589584127, 39.917127577675494], [-80.79571189140471, 39.919687587609225], [-80.76258989240256, 39.90890366876577], [-80.75642988620854, 39.91392766651862], [-80.76447685425273, 39.95024756498537], [-80.7585248424246, 39.959238555041885], [-80.74012382457805, 39.97079056865433], [-80.74189879650032, 40.00792651471697], [-80.7309018065757, 40.04666962109191], [-80.73860180926637, 40.07566966428644], [-80.70909983526337, 40.10146977771672], [-80.71003984857172, 40.138308848139616], [-80.70459986073857, 40.15482089024499], [-80.66809793019176, 40.19966903498193], [-80.6615409607283, 40.229796098035216], [-80.65209598757177, 40.244968137617896], [-80.61929504396173, 40.26516820386217], [-80.61489404246313, 40.2919672321382], [-80.59989305274533, 40.317667269980774], [-80.61279402663895, 40.347666281048596], [-80.60969301994966, 40.37496630641406], [-80.63073800069816, 40.384898297689695], [-80.6335939975403, 40.390465300518336], [-80.61219300842482, 40.402665327322026], [-80.61229299736517, 40.434865354017646], [-80.59609199036598, 40.463364385439526], [-80.59549198493565, 40.475264394791225], [-80.61800098029921, 40.50204740758124], [-80.62750505647253, 40.53579142523561], [-80.66777914839467, 40.57809443576357], [-80.66256217785691, 40.591598445721075], [-80.62716924419493, 40.61993447715026], [-80.59876226054577, 40.6252614923818], [-80.57673423823643, 40.61422249443178], [-80.55112427659067, 40.62884551483911], [-80.51898930629842, 40.63879953539341], [-80.51933987343536, 39.72140145018034], [-79.47665999016677, 39.721076049425626], [-79.48687309848145, 39.205960796232496], [-79.47321508117291, 39.202106790440254], [-79.4654510814065, 39.20939778814811], [-79.45456107165799, 39.21020078390128], [-79.42562705890487, 39.22572477341311], [-79.42035006658068, 39.23887977203603], [-79.40024305673924, 39.250857763830936], [-79.38775304437847, 39.26746175511756], [-79.35375000839579, 39.27803873766588], [-79.35098300537376, 39.285243734815175], [-79.34380099761779, 39.286095731345405], [-79.3460109998858, 39.29395973058168], [-79.31476796533903, 39.304380713590874], [-79.2902359387472, 39.29932270341819], [-79.28203692759926, 39.32304769326856], [-79.27083491444016, 39.32854168637661], [-79.26755590989109, 39.33629368264606], [-79.25389089420885, 39.337221675694664], [-79.25630789451556, 39.35722667120372], [-79.23291886360384, 39.35962165825907], [-79.23164786102267, 39.364569656123756], [-79.21427983740938, 39.36348164718278], [-79.19713080761144, 39.38859463029145], [-79.18495179115565, 39.38524762472544], [-79.17695877868286, 39.38902761919916], [-79.17863877885497, 39.39663161771135], [-79.162051757619, 39.388320611328496], [-79.16649675993146, 39.40088760971515], [-79.15901474569137, 39.41079660241153], [-79.16014774549468, 39.41637960123383], [-79.15124073200349, 39.416967596107774], [-79.14975173381711, 39.405725598958554], [-79.14375072520978, 39.405201595831805], [-79.14230971877927, 39.416686591250986], [-79.12838069767481, 39.417480583266915], [-79.12904669376911, 39.42954157959469], [-79.11060166429318, 39.43269956820093], [-79.11636866972064, 39.44048156878623], [-79.1024686432314, 39.4511795572592], [-79.1071835624374, 39.46200402079475], [-79.09454656180141, 39.46518205554894], [-79.1036005422935, 39.47002604712271], [-79.1031875257694, 39.47600206185565], [-79.08326755132543, 39.471377094484964], [-79.06862455137092, 39.474513133715156], [-79.06622753690002, 39.47994215171693], [-79.05809056889139, 39.47080914791656], [-79.0524445380944, 39.48231318744144], [-79.04704753817593, 39.48334920170415], [-79.03034060302781, 39.46540119533785], [-79.01714460673064, 39.4669752277495], [-78.96548340737948, 39.43845448921798], [-78.95675038485655, 39.440263484790925], [-78.95996038441186, 39.451643481848635], [-78.95429236837684, 39.45470247827408], [-78.95921167267127, 39.461891363570345], [-78.94094565947678, 39.47053943282347], [-78.94261562602944, 39.47961244890329], [-78.93874861468689, 39.48373046853346], [-78.91648562252131, 39.486542533946256], [-78.90388559337347, 39.50471460374004], [-78.905510608693, 39.511543610066774], [-78.89293361996718, 39.512753644119776], [-78.89331464566074, 39.52375465952422], [-78.87474165454074, 39.52260970452058], [-78.87068469365143, 39.538765737123946], [-78.86142870369126, 39.54096376267774], [-78.85192873267854, 39.551846799944954], [-78.85119375067704, 39.559922812182776], [-78.83855077230643, 39.56729885099721], [-78.81676177039363, 39.5616898949732], [-78.81350978410553, 39.567718909377625], [-78.82635779850044, 39.57733189109489], [-78.82600682252775, 39.58882790550963], [-78.81221284527862, 39.597715946040765], [-78.80934486694905, 39.60806196375605], [-78.79585486835046, 39.60693299128214], [-78.80173890738155, 39.6274870008248], [-78.79527992667589, 39.63676502370668], [-78.78133892877351, 39.636786051588196], [-78.77523894628385, 39.64568607227966], [-78.76583795243798, 39.648486093243925], [-78.7784749026209, 39.622649043601136], [-78.76316889896555, 39.61889607178641], [-78.7484969176688, 39.62626110755016], [-78.73618693254718, 39.62170712184537], [-78.7337569231235, 39.6139301193219], [-78.74706088400521, 39.60568909254808], [-78.75151188573625, 39.609946088435066], [-78.76811287914666, 39.60870305209855], [-78.77813886270607, 39.60136302368265], [-78.75674483203096, 39.58068905184202], [-78.74641883894824, 39.57954307186603], [-78.73397687374882, 39.5866170975594], [-78.72500784881642, 39.563972094800924], [-78.69462388183192, 39.55325013872625], [-78.68945287668207, 39.545769142878115], [-78.6559819123735, 39.53469419539311], [-78.62303497770903, 39.53951125583097], [-78.60225999779233, 39.53211129001502], [-78.59163102560444, 39.53689031035247], [-78.58778901340935, 39.52791131472355], [-78.56592703203253, 39.51944335245325], [-78.52138611774313, 39.52478943417773], [-78.47116411931287, 39.516102510316436], [-78.4628971274337, 39.52083952062937], [-78.46284716610795, 39.535757519714274], [-78.44864017292821, 39.53995953745146], [-78.4601211916443, 39.54584752249672], [-78.46022220563668, 39.55118352200876], [-78.45108120126409, 39.550191533598245], [-78.43835516657536, 39.53875255059227], [-78.4347571804175, 39.5439875547078], [-78.43739520787184, 39.553471550574436], [-78.42397318100105, 39.545102568245106], [-78.41758418563096, 39.54715457612047], [-78.4265352227011, 39.559154563716525], [-78.45437426634537, 39.57431852771649], [-78.45718530082465, 39.58737852331151], [-78.44317331330349, 39.59115454029753], [-78.40802928070964, 39.57859258488137], [-78.3953152995494, 39.584214600005375], [-78.39746931848235, 39.59023159666479], [-78.42557936464998, 39.60759856043578], [-78.43362139250112, 39.618258549707], [-78.43024840847016, 39.623289553345145], [-78.42054741520148, 39.62402056499272], [-78.37473038479385, 39.60863462229692], [-78.37240239808361, 39.612296624654626], [-78.38295742720659, 39.62224561059642], [-78.3824854472661, 39.62821561042962], [-78.35576845402126, 39.626257642885754], [-78.35367147130016, 39.630786644760946], [-78.35950449392962, 39.63808063672528], [-78.35190350718023, 39.64048564547559], [-78.26683146563042, 39.61881775166087], [-78.25407556660032, 39.64008876251634], [-78.2235955665425, 39.661096803366995], [-78.23301064164909, 39.67047078745992], [-78.23156265283242, 39.67438178915876], [-78.2029435506123, 39.676652834515465], [-78.18275753836603, 39.69510986748081], [-78.10783219286526, 39.68213698816856], [-78.07459302723461, 39.66668603488987], [-78.03598983125404, 39.635720076313575], [-78.00673169096855, 39.60133709375007], [-77.9766836082829, 39.599744082642154], [-77.9576395637423, 39.60861407129321], [-77.95059654187061, 39.60394406335156], [-77.9498335306712, 39.58711005615546], [-77.94214751057511, 39.58493304993693], [-77.93544750275603, 39.60807605192851], [-77.94461953201485, 39.6167720629026], [-77.93748951274941, 39.61915005704068], [-77.9232954688012, 39.60485204080233], [-77.88847437629923, 39.5973430119056], [-77.88099035532836, 39.602852005495684], [-77.88512136355796, 39.61577500804545], [-77.8335652285726, 39.602935966334314], [-77.82981123211228, 39.58728797037508], [-77.83632726486616, 39.566369983619744], [-77.87844836017017, 39.56349300786392], [-77.88894238464617, 39.55595001390776], [-77.86534834252616, 39.538381005858795], [-77.86367735028384, 39.515032010319686], [-77.84191731212819, 39.51847000456269], [-77.8369322930215, 39.53216999785169], [-77.825354274466, 39.52917699552813], [-77.82564728624828, 39.51689500158232], [-77.84510032615408, 39.50584500969543], [-77.84566333058109, 39.4986280117418], [-77.80182726129954, 39.489395007370305], [-77.79176224684147, 39.4907890064339], [-77.78160523673955, 39.49906700539328], [-77.76599021145111, 39.49572400391573], [-77.7691222123108, 39.490281004327336], [-77.79669224857915, 39.480498006898266], [-77.79563124174946, 39.471259006816815], [-77.77781220697968, 39.46192400552451], [-77.798465240539, 39.460670007032945], [-77.78557749707521, 39.445366954225506], [-77.80324650777982, 39.43713595542467], [-77.79274847782277, 39.43059295779801], [-77.75467840250398, 39.42465796157433], [-77.73640632317417, 39.39268396375389], [-77.73808130824257, 39.38621096656282], [-77.75338630258548, 39.382093973053486], [-77.74387124687381, 39.359946976838316], [-77.76111222237162, 39.339756983991926], [-77.71994316833587, 39.31969298252746], [-77.73489614355142, 39.31240898853557], [-77.75026408149299, 39.28928399807842], [-77.76284104434312, 39.25844500573029], [-77.77027805922953, 39.25597700603516], [-77.77087304773485, 39.249760007622164], [-77.76727403762753, 39.24938000780756], [-77.7714120454451, 39.23677600805436], [-77.79362809338394, 39.2101250079211], [-77.80509610334819, 39.174222008617264], [-77.82141012636468, 39.1524100085761], [-77.82217912002274, 39.13998500896818], [-77.82815412690138, 39.13232900893818], [-78.34708498839622, 39.46601166588873], [-78.34654394544826, 39.44261559235703], [-78.35322495427557, 39.43679158996723], [-78.34671594258695, 39.42761759881469], [-78.35991596110222, 39.40902759777196], [-78.34943394111232, 39.39725161030386], [-78.35092194263679, 39.3909846120859], [-78.34321192810292, 39.38880661819364], [-78.36686496947887, 39.359289616313724], [-78.34047791423568, 39.353491635184504], [-78.33928191048449, 39.3486046380064], [-78.34740692659184, 39.34340163538701], [-78.36003295075304, 39.317770639641054], [-78.36468396152954, 39.31731163726595], [-78.39336903225619, 39.2829876388595], [-78.40288405745403, 39.27862363636705], [-78.41942010660539, 39.25747563981773], [-78.3996670425373, 39.24387365448008], [-78.4055830358552, 39.23117565533766], [-78.43864906458008, 39.198048652508724], [-78.4249030187178, 39.193300658906956], [-78.4263130028832, 39.18276166168218], [-78.40369491475857, 39.16745067331652], [-78.42729194951741, 39.15272567072853], [-78.43942694233486, 39.13214567422329], [-78.45986695864393, 39.11335067625513], [-78.4951580233972, 39.10099167429164], [-78.52271206258753, 39.07106168314941], [-78.57189918824723, 39.031994699604304], [-78.5504650775418, 39.01806470872796], [-78.570460133342, 39.00155171828209], [-78.60165328217033, 38.96460267706525], [-78.61118231516014, 38.97613369297774], [-78.61867434713191, 38.97408169236554], [-78.62045135033762, 38.98260070174067], [-78.62567037204606, 38.982574702539516], [-78.63842143162417, 38.96681869026752], [-78.64658746458022, 38.968137693714965], [-78.65904852276769, 38.94737468179953], [-78.68045461467281, 38.925312678841436], [-78.68826464559108, 38.92477968344574], [-78.71864576769408, 38.9045606973756], [-78.71707475774899, 38.936027704552295], [-78.73891984512213, 38.92728271548867], [-78.75908390882361, 38.90052871766485], [-78.78602396447822, 38.887186702204694], [-78.86927503256737, 38.76299059596713], [-78.99399633574515, 38.85010155000687], [-78.99817033848045, 38.84735254429858], [-79.00655130521768, 38.82371151924839], [-79.01955230690523, 38.817911513711714], [-79.02725226954692, 38.79211248752612], [-79.04655328875631, 38.79211248784764], [-79.05495328657115, 38.785712481370226], [-79.05155326141994, 38.77261246779494], [-79.05755324737052, 38.76021245501476], [-79.07255422944183, 38.74751245328431], [-79.09275388575442, 38.702314654517956], [-79.08435377239174, 38.68651570165367], [-79.09295354056789, 38.6595168438245], [-79.106354474206, 38.656216911337246], [-79.1202544699482, 38.66021594400523], [-79.12975539318188, 38.655017010951134], [-79.15125496377048, 38.62061833330742], [-79.15865462139105, 38.592319576881096], [-79.17095527356612, 38.568120844929176], [-79.2058554708116, 38.52452251217443], [-79.21058713582778, 38.49291473930177], [-79.22566506355497, 38.47647277938301], [-79.24005496104607, 38.46984287387763], [-79.24263701202351, 38.45416978221102], [-79.254430976518, 38.45595082685127], [-79.26741016543649, 38.43832358729931], [-79.2827583152205, 38.43164841553236], [-79.27967432046916, 38.42417438902042], [-79.28296736894599, 38.41809632183177], [-79.29052541553419, 38.42075828108036], [-79.31227260474583, 38.41187705822902], [-79.47663590257166, 38.45722789804004], [-79.52146736531334, 38.53391774490104], [-79.53686842426968, 38.55091674615781], [-79.64907350958516, 38.591514775679066], [-79.66287340967475, 38.57041578950243], [-79.65927337847984, 38.56241579135117], [-79.66507336766637, 38.56091579427835], [-79.6692733160202, 38.54951580069178], [-79.66687227032155, 38.5383168043415], [-79.67297222477022, 38.528716810906865], [-79.66207217730339, 38.51551681167526], [-79.6704721375164, 38.507716818588065], [-79.68037214197312, 38.510616821738935], [-79.68297210033586, 38.50131682685094], [-79.69757016246466, 38.48722273732129], [-79.69342220065182, 38.48101069101192], [-79.69892727117835, 38.46986860534754], [-79.68836333962489, 38.456869516404524], [-79.68967348978198, 38.431438329287985], [-79.70663263581402, 38.41572917599728], [-79.7263489162147, 38.38706888789768], [-79.7316970479107, 38.37337475217531], [-79.72559608815882, 38.36382669349804], [-79.74061425357628, 38.35409954722412], [-79.76443130221234, 38.35651260530242], [-79.77308946921373, 38.33552747228403], [-79.79654954395518, 38.32347851810948], [-79.81015363234553, 38.30670548172511], [-79.80277773434989, 38.29207132080332], [-79.7954477626403, 38.290226252635186], [-79.7897908374379, 38.28116513864363], [-79.78894492525421, 38.26870103259279], [-79.80633292499786, 38.25919110294683], [-79.8119868967298, 38.26039915925978], [-79.81962290688085, 38.24823215085585], [-79.83088187427676, 38.24968524862744], [-79.83512378107179, 38.24189028457651], [-79.84520673311448, 38.241080370550115], [-79.89159024758185, 38.20465072117778], [-79.89842513270898, 38.193043758579286], [-79.91634303123482, 38.186276882759635], [-79.92119497420961, 38.18037690811331], [-79.91662096725993, 38.17799287041515], [-79.91891190450967, 38.17043787362096], [-79.91488289103617, 38.1675228398894], [-79.91951384426416, 38.16264786391546], [-79.91866078638043, 38.154788843964404], [-79.93374961996321, 38.13550690690011], [-79.9448415779464, 38.131583969384515], [-79.9389504439583, 38.11161788829338], [-79.92632842026511, 38.107149804263095], [-79.95436722365919, 38.08039590271674], [-79.9736989275172, 38.032554868920975], [-79.99498281370781, 38.007851881421935], [-79.99938174162165, 37.99584089514544], [-80.07451127962383, 37.94222044424137], [-80.09656009442274, 37.91811161302907], [-80.10292810292586, 37.91891062881782], [-80.11896399315644, 37.90361373090662], [-80.1177439479397, 37.89771974867851], [-80.1236169530211, 37.897942763295994], [-80.1419438515613, 37.882615860091825], [-80.14894788768137, 37.88689186360857], [-80.16219881332358, 37.8751219294012], [-80.18305866197004, 37.85064603733598], [-80.17938758265169, 37.8397510584274], [-80.19962952457632, 37.82750711921918], [-80.20647845704327, 37.81597015350728], [-80.22708837699396, 37.79888620975534], [-80.22948533895568, 37.79233122342191], [-80.21565421856081, 37.77748124036377], [-80.23045425105141, 37.77830524824651], [-80.24143320692265, 37.76805827094147], [-80.24797322240983, 37.768511273382764], [-80.2497861554515, 37.757111290086385], [-80.25740720065271, 37.75608429283379], [-80.2627612602012, 37.738336282290994], [-80.25202023010606, 37.729825267497525], [-80.25307325748527, 37.72589926118343], [-80.29613471215181, 37.69178320404703], [-80.27936877414406, 37.65707714571229], [-80.26745175559041, 37.64610812904129], [-80.22098064860315, 37.62776709853378], [-80.24026881791282, 37.60696106742024], [-80.25891596154752, 37.595499047323955], [-80.32850149409904, 37.56431496879338], [-80.31239049126619, 37.54623894274051], [-80.33030362933867, 37.53624391641167], [-80.30934356318468, 37.52738091047252], [-80.29164142994294, 37.536504935051994], [-80.2823823970842, 37.53351693429831], [-80.29978660550991, 37.508270881645046], [-80.32710077911047, 37.495375836511606], [-80.36683598274321, 37.48487877793193], [-80.3631679694519, 37.48000076382916], [-80.37195001973214, 37.474068738225434], [-80.47559964808481, 37.422948482074595], [-80.49486572759396, 37.43506951207326], [-80.49727871879573, 37.44477854672402], [-80.49297966721026, 37.45774859848898], [-80.51138967881509, 37.48167167925729], [-80.55203479847029, 37.47356263088707], [-80.62266301709127, 37.433306426890134], [-80.63438904360062, 37.431226410671684], [-80.70520219734428, 37.39461719542244], [-80.7700813017384, 37.37236203575654], [-80.78418733221702, 37.39458613154353], [-80.80612837078992, 37.398073129729504], [-80.80876837770884, 37.40627016652993], [-80.8376774330381, 37.42565723268438], [-80.84632344721011, 37.42339321425114], [-80.85955547180049, 37.429567231079915], [-80.8651474784828, 37.41992618119291], [-80.86276047193034, 37.41182814567395], [-80.88324749849635, 37.38393199920993], [-80.84945042959164, 37.34690785368574], [-80.86898546030847, 37.33857180056765], [-80.90053450664183, 37.31499867001284], [-80.94789558085084, 37.295870552572005], [-80.97388862340026, 37.291442516539604], [-80.98132163663229, 37.293463520792514], [-80.97958863657377, 37.30227756070739], [-81.09482020822196, 37.28263825468332], [-81.16702968638866, 37.26287904277732], [-81.22510504838392, 37.23487193850122], [-81.32010555520071, 37.29932109300704], [-81.36215618873096, 37.33768532628012], [-81.3744551592634, 37.318612282975124], [-81.38672708120815, 37.32047232018379], [-81.39428704210748, 37.31640932082452], [-81.39681704518301, 37.30449627444927], [-81.40506000005523, 37.2987922663728], [-81.4166629519604, 37.27321216940674], [-81.44765473041991, 37.27224321490078], [-81.48014348850025, 37.25111914513372], [-81.49228639511468, 37.250958159494814], [-81.49887335048297, 37.258023210895146], [-81.50732437147501, 37.233798124515076], [-81.54443637395433, 37.22075905641829], [-81.55359939474455, 37.20844100728706], [-81.67820929424428, 37.201480800956176], [-81.68354327326081, 37.21144985289652], [-81.695112259797, 37.21356785153147], [-81.7157292201123, 37.22876892821269], [-81.7230601980301, 37.24049100202217], [-81.73854218972498, 37.23826197615602], [-81.74400218025343, 37.24252600356504], [-81.74097317818821, 37.25405008626718], [-81.75763016303114, 37.27400119585344], [-81.77468308384249, 37.274805158727446], [-81.7892930440998, 37.28441418726378], [-81.79342401745318, 37.28167215853042], [-81.8053809792431, 37.28562015586542], [-81.81962389158146, 37.279409078309264], [-81.83876084078001, 37.286341078790834], [-81.84994778717235, 37.28522504356797], [-81.85354978611721, 37.287699051910955], [-81.85445889250158, 37.30656818093118], [-81.85962286420288, 37.30476315598269], [-81.86568187318987, 37.30948217442713], [-81.86026592865394, 37.315713230799126], [-81.87871198419428, 37.33175129988614], [-81.89377193742467, 37.33010325332008], [-81.89949400940256, 37.34110031802976], [-81.91667704719778, 37.34934433759772], [-81.93338120606911, 37.36933944366181], [-81.9310592635026, 37.37546449281062], [-81.9367433104852, 37.38072851832684], [-81.92877743029996, 37.393843629795114], [-81.93004153469687, 37.40528970935426], [-81.92348058254802, 37.41137776671846], [-81.93694967785515, 37.41991880031992], [-81.94055277033013, 37.429056858893325], [-81.93562084803524, 37.43839593613132], [-81.95742700718887, 37.44904997011662], [-81.97038302803429, 37.447686934752426], [-81.96879506466483, 37.45149496568576], [-81.97617614861817, 37.457184992956], [-81.9870061555439, 37.45487695500486], [-81.99564935927023, 37.46983204866443], [-81.99291650399546, 37.4829681507585], [-81.97759345780543, 37.484602191197844], [-81.96498649794903, 37.493487279343434], [-81.95326442605348, 37.491762288222915], [-81.95314750623564, 37.50131335228412], [-81.9271943602378, 37.515331440156615], [-81.93405738669769, 37.51946844076603], [-81.9438654426091, 37.51287840418283], [-81.94766044092964, 37.52507943507742], [-81.94401041504936, 37.53096345901831], [-81.95352446269098, 37.52805543464949], [-81.95737946763813, 37.535197450714705], [-81.96758351734744, 37.53281442692434], [-81.96497148669216, 37.54302546354372], [-81.9701475023074, 37.54650346675021], [-81.99403362446174, 37.53761140069705], [-81.9998446382836, 37.542578408430664], [-82.00919462050895, 37.533242390213026], [-82.01592058865555, 37.53432040378877], [-82.0188785630388, 37.540571428552205], [-82.02882652589963, 37.537666433615456], [-82.04282544828871, 37.5483604870591], [-82.04239747323335, 37.533915441852244], [-82.04665346329269, 37.52819243068453], [-82.04958443974648, 37.53522145651068], [-82.06441837295698, 37.536869483267445], [-82.06441836369058, 37.544515505663874], [-82.07503030753121, 37.55582355289204], [-82.10314419664726, 37.55277558218674], [-82.10480818625098, 37.56019060398666], [-82.11730413749139, 37.55922561774371], [-82.12382411300294, 37.55138860666408], [-82.13324707458133, 37.55283162299909], [-82.13442407017057, 37.56292764904482], [-82.14464803173651, 37.5683146747587], [-82.12730309686836, 37.57268066407385], [-82.12430710721328, 37.57780567324712], [-82.12732109553103, 37.58666669869346], [-82.13228407838791, 37.59332672041774], [-82.1567179967349, 37.592789745046154], [-82.15674100377218, 37.60920178217401], [-82.16853396748313, 37.60869179218196], [-82.16419098727772, 37.62019181345008], [-82.17668195006522, 37.618201820020005], [-82.18142993952806, 37.62184183176511], [-82.1816909434495, 37.627146843022274], [-82.17244597256601, 37.63258884719226], [-82.17751096552317, 37.6404168676295], [-82.17526397689316, 37.647970882083705], [-82.19075593741057, 37.64513688663073], [-82.18729792793778, 37.626934847147204], [-82.21344285399934, 37.625219865264555], [-82.22019984892218, 37.63391188650781], [-82.21684786923261, 37.64159789797889], [-82.24040984942131, 37.661566947713084], [-82.25711082365403, 37.65674894801835], [-82.27202084735481, 37.66378196416902], [-82.28229687710223, 37.675825985965815], [-82.28817386583587, 37.66822697639026], [-82.2943928737325, 37.67044798177553], [-82.29473688869155, 37.6782769935655], [-82.30395288911289, 37.6757599927345], [-82.29611790428375, 37.68617400575174], [-82.30288592161212, 37.69368301882134], [-82.29663393499433, 37.70240303004507], [-82.30723494922381, 37.70766904052967], [-82.31887900022392, 37.73376308103695], [-82.33403502067087, 37.74322709732986], [-82.31077703287143, 37.762692118820496], [-82.33399403852387, 37.76508012495701], [-82.32369604075929, 37.77502813564249], [-82.33759604353627, 37.77536913773555], [-82.33970504815346, 37.785509150062914], [-82.37616906108815, 37.80203017258893], [-82.38658606889737, 37.81821219146412], [-82.39697806710801, 37.80901418189753], [-82.4016520682474, 37.81009118338782], [-82.39968007516197, 37.82993520499132], [-82.4121190818648, 37.84389122042138], [-82.42061608393045, 37.84666322346445], [-82.41487808656052, 37.85624023367942], [-82.42467408967002, 37.861897239572194], [-82.40751308963347, 37.86729724570937], [-82.41819709217242, 37.87121324961003], [-82.41992909709352, 37.88487026407184], [-82.46288111044807, 37.914832291575365], [-82.46767911058714, 37.914204290470195], [-82.46822610737904, 37.90356727992615], [-82.47440710678246, 37.89995527588538], [-82.47553411045814, 37.91194528748212], [-82.4883461130373, 37.91772429175871], [-82.48033811489566, 37.92583630044861], [-82.49727111640321, 37.927621300117], [-82.50219811767614, 37.93305230423955], [-82.48951411891184, 37.93793531088091], [-82.4977191214755, 37.94566031700452], [-82.48512012105277, 37.946044319265305], [-82.47155512441526, 37.959055334072524], [-82.48398712604923, 37.963343336061115], [-82.48426012839909, 37.971383343735646], [-82.46938012860787, 37.97305934822936], [-82.46425713170653, 37.9834123594968], [-82.48396813209943, 37.98409335600659], [-82.48923613642171, 37.99898036907573], [-82.51919313308456, 38.001131362934935], [-82.51565013461716, 38.00669036812115], [-82.52259113421492, 38.01296837088833], [-82.52581713562739, 38.026406380094265], [-82.53863913482046, 38.0373813847299], [-82.53729313627429, 38.0452043909988], [-82.54958013749966, 38.06857940510983], [-82.58403913437364, 38.090663411946345], [-82.58778213651192, 38.108879424578255], [-82.60658913486499, 38.120843428224305], [-82.61945213244456, 38.12074542449283], [-82.62212513395517, 38.13341443324918], [-82.63646613199681, 38.13786043250636], [-82.64319823941669, 38.16909025011055]]}}]}